{
  "type": "FeatureCollection",
  "features": [
    {
      "type": "Feature",
      "properties": {
        "norad_id": 66875,
        "name": "STARLINK-36053",
        "group": "last-30-days",
        "lat": 42.76744195449475,
        "lon": -169.7843144913631,
        "alt_km": 313.07124177217975,
        "timestamp": "2025-12-15T04:01:19.181853+00:00",
        "meta_object_name": "STARLINK-36053",
        "meta_object_id": "2025-281AD",
        "meta_epoch": "2025-12-14T06:00:02.999808",
        "meta_mean_motion": 15.8724977,
        "meta_eccentricity": 0.00014136,
        "meta_inclination": 43.0001,
        "meta_ra_of_asc_node": 112.8368,
        "meta_arg_of_pericenter": 265.978,
        "meta_mean_anomaly": 334.5381,
        "meta_ephemeris_type": 0,
        "meta_classification_type": "U",
        "meta_norad_cat_id": 66875,
        "meta_element_set_no": 999,
        "meta_rev_at_epoch": 167,
        "meta_bstar": -0.0064740678,
        "meta_mean_motion_dot": -0.01545566,
        "meta_mean_motion_ddot": 0,
        "tle_line1": "1 66875U 25281AD  25348.25003472 -.01545566  00000+0 -64741-2 0  9992",
        "tle_line2": "2 66875  43.0001 112.8368 0001413 265.9780 334.5381 15.87249770  1678"
      },
      "geometry": {
        "type": "Point",
        "coordinates": [
          -169.7843144913631,
          42.76744195449475
        ]
      }
    },
    {
      "type": "Feature",
      "properties": {
        "norad_id": 66876,
        "name": "STARLINK-35702",
        "group": "last-30-days",
        "lat": 42.149127623541126,
        "lon": -176.55791811189556,
        "alt_km": 313.1167151269765,
        "timestamp": "2025-12-15T04:01:19.181865+00:00",
        "meta_object_name": "STARLINK-35702",
        "meta_object_id": "2025-281AE",
        "meta_epoch": "2025-12-14T06:00:02.999808",
        "meta_mean_motion": 15.87272776,
        "meta_eccentricity": 0.00015428,
        "meta_inclination": 43.0004,
        "meta_ra_of_asc_node": 112.8506,
        "meta_arg_of_pericenter": 267.4244,
        "meta_mean_anomaly": 327.9545,
        "meta_ephemeris_type": 0,
        "meta_classification_type": "U",
        "meta_norad_cat_id": 66876,
        "meta_element_set_no": 999,
        "meta_rev_at_epoch": 167,
        "meta_bstar": -0.0064386623,
        "meta_mean_motion_dot": -0.01539789,
        "meta_mean_motion_ddot": 0,
        "tle_line1": "1 66876U 25281AE  25348.25003472 -.01539789  00000+0 -64387-2 0  9999",
        "tle_line2": "2 66876  43.0004 112.8506 0001542 267.4244 327.9545 15.87272776  1671"
      },
      "geometry": {
        "type": "Point",
        "coordinates": [
          -176.55791811189556,
          42.149127623541126
        ]
      }
    },
    {
      "type": "Feature",
      "properties": {
        "norad_id": 66877,
        "name": "ZQ-3 R/B",
        "group": "last-30-days",
        "lat": 38.86457284059158,
        "lon": -163.29957943206256,
        "alt_km": 657.347148152845,
        "timestamp": "2025-12-15T04:01:19.181876+00:00",
        "meta_object_name": "ZQ-3 R/B",
        "meta_object_id": "2025-282A",
        "meta_epoch": "2025-12-14T07:41:19.484160",
        "meta_mean_motion": 14.62852731,
        "meta_eccentricity": 0.07651193,
        "meta_inclination": 56.952,
        "meta_ra_of_asc_node": 51.6111,
        "meta_arg_of_pericenter": 222.6896,
        "meta_mean_anomaly": 131.2199,
        "meta_ephemeris_type": 0,
        "meta_classification_type": "U",
        "meta_norad_cat_id": 66877,
        "meta_element_set_no": 999,
        "meta_rev_at_epoch": 162,
        "meta_bstar": 0.00023301572,
        "meta_mean_motion_dot": 0.01191657,
        "meta_mean_motion_ddot": 7.534814e-06,
        "tle_line1": "1 66877U 25282A   25348.32036440  .01191657  75348-5  23302-3 0  9992",
        "tle_line2": "2 66877  56.9520  51.6111 0765119 222.6896 131.2199 14.62852731  1626"
      },
      "geometry": {
        "type": "Point",
        "coordinates": [
          -163.29957943206256,
          38.86457284059158
        ]
      }
    },
    {
      "type": "Feature",
      "properties": {
        "norad_id": 66878,
        "name": "STARLINK-35866",
        "group": "last-30-days",
        "lat": 48.213529356008245,
        "lon": 118.68556957627827,
        "alt_km": 299.455315213213,
        "timestamp": "2025-12-15T04:01:19.181886+00:00",
        "meta_object_name": "STARLINK-35866",
        "meta_object_id": "2025-283A",
        "meta_epoch": "2025-12-14T06:00:02.999808",
        "meta_mean_motion": 15.9067315,
        "meta_eccentricity": 8.761e-05,
        "meta_inclination": 53.1558,
        "meta_ra_of_asc_node": 66.3035,
        "meta_arg_of_pericenter": 89.0404,
        "meta_mean_anomaly": 126.0221,
        "meta_ephemeris_type": 0,
        "meta_classification_type": "U",
        "meta_norad_cat_id": 66878,
        "meta_element_set_no": 999,
        "meta_rev_at_epoch": 267,
        "meta_bstar": -0.0039239528,
        "meta_mean_motion_dot": -0.01103372,
        "meta_mean_motion_ddot": 0,
        "tle_line1": "1 66878U 25283A   25348.25003472 -.01103372  00000+0 -39240-2 0  9998",
        "tle_line2": "2 66878  53.1558  66.3035 0000876  89.0404 126.0221 15.90673150  2679"
      },
      "geometry": {
        "type": "Point",
        "coordinates": [
          118.68556957627827,
          48.213529356008245
        ]
      }
    },
    {
      "type": "Feature",
      "properties": {
        "norad_id": 66879,
        "name": "STARLINK-35749",
        "group": "last-30-days",
        "lat": 50.22048096728113,
        "lon": 125.87908050158923,
        "alt_km": 298.7187464465824,
        "timestamp": "2025-12-15T04:01:19.181896+00:00",
        "meta_object_name": "STARLINK-35749",
        "meta_object_id": "2025-283B",
        "meta_epoch": "2025-12-14T06:00:02.999808",
        "meta_mean_motion": 15.90758303,
        "meta_eccentricity": 0.00011244,
        "meta_inclination": 53.1555,
        "meta_ra_of_asc_node": 66.2932,
        "meta_arg_of_pericenter": 82.5207,
        "meta_mean_anomaly": 137.3847,
        "meta_ephemeris_type": 0,
        "meta_classification_type": "U",
        "meta_norad_cat_id": 66879,
        "meta_element_set_no": 999,
        "meta_rev_at_epoch": 267,
        "meta_bstar": -0.0039313849,
        "meta_mean_motion_dot": -0.01251246,
        "meta_mean_motion_ddot": 0.00045423161,
        "tle_line1": "1 66879U 25283B   25348.25003472 -.01251246  45423-3 -39314-2 0  9997",
        "tle_line2": "2 66879  53.1555  66.2932 0001124  82.5207 137.3847 15.90758303  2671"
      },
      "geometry": {
        "type": "Point",
        "coordinates": [
          125.87908050158923,
          50.22048096728113
        ]
      }
    },
    {
      "type": "Feature",
      "properties": {
        "norad_id": 66880,
        "name": "STARLINK-35844",
        "group": "last-30-days",
        "lat": 49.220391859349945,
        "lon": 122.02109274909496,
        "alt_km": 299.21256699938294,
        "timestamp": "2025-12-15T04:01:19.181907+00:00",
        "meta_object_name": "STARLINK-35844",
        "meta_object_id": "2025-283C",
        "meta_epoch": "2025-12-14T06:00:02.999808",
        "meta_mean_motion": 15.90716225,
        "meta_eccentricity": 8.699e-05,
        "meta_inclination": 53.1558,
        "meta_ra_of_asc_node": 66.2988,
        "meta_arg_of_pericenter": 90.445,
        "meta_mean_anomaly": 126.9081,
        "meta_ephemeris_type": 0,
        "meta_classification_type": "U",
        "meta_norad_cat_id": 66880,
        "meta_element_set_no": 999,
        "meta_rev_at_epoch": 267,
        "meta_bstar": -0.0039312812,
        "meta_mean_motion_dot": -0.01248523,
        "meta_mean_motion_ddot": 0.0004522525,
        "tle_line1": "1 66880U 25283C   25348.25003472 -.01248523  45225-3 -39313-2 0  9992",
        "tle_line2": "2 66880  53.1558  66.2988 0000869  90.4450 126.9081 15.90716225  2671"
      },
      "geometry": {
        "type": "Point",
        "coordinates": [
          122.02109274909496,
          49.220391859349945
        ]
      }
    },
    {
      "type": "Feature",
      "properties": {
        "norad_id": 66881,
        "name": "STARLINK-35860",
        "group": "last-30-days",
        "lat": 50.900961811325715,
        "lon": 128.95817785430248,
        "alt_km": 298.56349088928437,
        "timestamp": "2025-12-15T04:01:19.181919+00:00",
        "meta_object_name": "STARLINK-35860",
        "meta_object_id": "2025-283D",
        "meta_epoch": "2025-12-14T06:00:02.999808",
        "meta_mean_motion": 15.90805222,
        "meta_eccentricity": 0.00011097,
        "meta_inclination": 53.1555,
        "meta_ra_of_asc_node": 66.2889,
        "meta_arg_of_pericenter": 86.2389,
        "meta_mean_anomaly": 135.6179,
        "meta_ephemeris_type": 0,
        "meta_classification_type": "U",
        "meta_norad_cat_id": 66881,
        "meta_element_set_no": 999,
        "meta_rev_at_epoch": 267,
        "meta_bstar": -0.0039623873,
        "meta_mean_motion_dot": -0.01263999,
        "meta_mean_motion_ddot": 0.0004629006,
        "tle_line1": "1 66881U 25283D   25348.25003472 -.01263999  46290-3 -39624-2 0  9995",
        "tle_line2": "2 66881  53.1555  66.2889 0001109  86.2389 135.6179 15.90805222  2672"
      },
      "geometry": {
        "type": "Point",
        "coordinates": [
          128.95817785430248,
          50.900961811325715
        ]
      }
    }
  ]
}